{"fetched_at":"2026-03-29T16:36:15Z","count":15609,"tles":[{"name":"STARLINK-34211","line1":"1 64255U 25119Y   26087.77445807  .00051368  00000+0  18588-2 0  9999","line2":"2 64255  43.0028 199.6534 0002299 263.3217  96.7373 15.27656613 47080","category":"Starlink"}]}