{
  "norad_id": 64255,
  "name": "STARLINK-34211",
  "history": [
    {
      "epoch": "2026-03-28T18:35:13.177248",
      "apogee_km": 484.3972385174893,
      "perigee_km": 481.2421589700052,
      "latitude_deg": 32.423991171558114,
      "longitude_deg": -40.15202528005466,
      "semi_major_axis_km": 6860.956698743747,
      "eccentricity": 0.00022993,
      "inclination_deg": 43.0028,
      "raan_deg": 199.6534,
      "arg_perigee_deg": 263.3217,
      "mean_anomaly_deg": 96.7373,
      "mean_motion_rev_day": 15.27656613
    }
  ]
}